OBJECT_NAME,OBJECT_ID,EPOCH,MEAN_MOTION,ECCENTRICITY,INCLINATION,RA_OF_ASC_NODE,ARG_OF_PERICENTER,MEAN_ANOMALY,EPHEMERIS_TYPE,CLASSIFICATION_TYPE,NORAD_CAT_ID,ELEMENT_SET_NO,REV_AT_EPOCH,BSTAR,MEAN_MOTION_DOT,MEAN_MOTION_DDOT
SHENZHOU-23 (SZ-23),2026-113A,2026-06-19T12:52:24.981600,15.60899851,.00073639,41.4696,307.7047,97.4720,262.6956,0,U,69180,999,29364,.2264613E-3,.19225E-3,0
STARLINK-37380,2026-114A,2026-06-19T07:25:41.357280,15.78096568,.00008978,53.1573,191.9170,60.5184,299.5927,0,U,69182,999,510,.87980342E-3,.155183E-2,0
STARLINK-37089,2026-114B,2026-06-19T13:29:07.815264,15.78117732,.00018214,53.1573,190.6452,145.5304,214.5836,0,U,69183,999,514,.12147299E-2,.216276E-2,0
STARLINK-37428,2026-114C,2026-06-19T07:22:19.050816,15.78118730,.00008953,53.1574,191.9018,84.4932,275.6191,0,U,69184,999,510,.12307353E-2,.219219E-2,0
STARLINK-37237,2026-114D,2026-06-19T13:23:15.933120,15.77904777,.00043549,53.1570,190.6189,326.4394,33.6351,0,U,69185,999,514,.10656175E-2,.187265E-2,0
STARLINK-37365,2026-114E,2026-06-19T20:59:39.071328,15.78010519,.0005012,53.1570,189.0404,172.2881,187.8219,0,U,69186,999,519,.14798E-2,.263945E-2,0
STARLINK-37209,2026-114F,2026-06-19T07:17:44.561472,15.77934111,.00039719,53.1574,191.8801,325.8875,34.1890,0,U,69187,999,510,.12800097E-2,.226391E-2,0
STARLINK-37359,2026-114G,2026-06-19T08:48:15.598080,15.78111414,.00016244,53.1572,191.5612,49.1673,310.9489,0,U,69188,999,511,.11638695E-2,.206903E-2,0
STARLINK-37440,2026-114H,2026-06-19T20:00:01.999008,15.60532316,.0001228,53.1600,188.9084,94.2351,193.5790,0,U,69189,999,524,-.3144E-1,-.232384E-1,0
STARLINK-37282,2026-114J,2026-06-19T02:34:08.672448,15.78072220,.00020573,53.1573,192.7822,320.1129,39.9741,0,U,69190,999,507,.35216133E-3,.60964E-3,0
STARLINK-37422,2026-114K,2026-06-19T08:07:43.544352,15.80955268,.00008777,53.1569,191.3733,96.1796,263.9327,0,U,69191,999,511,.88200278E-3,.17768E-2,0
STARLINK-37424,2026-114L,2026-06-19T14:00:01.999872,15.78074691,.00009908,53.1567,190.4080,87.5567,99.3356,0,U,69192,999,520,-.36506465E-3,-.63638E-3,0
STARLINK-36666,2026-114M,2026-06-19T20:00:01.999008,15.77537179,.000089,53.1588,188.9040,86.5655,205.4030,0,U,69193,999,524,-.17113E-1,-.2485128E-1,0
STARLINK-37355,2026-114N,2026-06-19T14:11:07.600416,15.80847865,.00003188,53.1568,190.1013,30.9677,329.1364,0,U,69194,999,515,.36298615E-3,.71454E-3,0
STARLINK-37166,2026-114P,2026-06-19T11:06:53.425440,15.80849847,.00026909,53.1562,190.7238,84.7330,275.3999,0,U,69195,999,513,.99275789E-3,.199638E-2,0
STARLINK-36933,2026-114Q,2026-06-19T12:38:59.396640,15.80996248,.00011536,53.1566,190.4134,90.2431,269.8724,0,U,69196,999,514,.10834758E-2,.219925E-2,0
STARLINK-37419,2026-114R,2026-06-19T12:36:49.729248,15.80970914,.00010824,53.1566,190.4016,102.3157,257.7987,0,U,69197,999,514,.95633096E-3,.193202E-2,0
STARLINK-37321,2026-114S,2026-06-19T14:06:46.889280,15.80988652,.00009255,53.1568,190.0824,89.3523,270.7606,0,U,69198,999,515,.11571847E-2,.235275E-2,0
STARLINK-37406,2026-114T,2026-06-19T20:00:01.999008,15.63539567,.0001375,53.1603,189.0403,93.5896,131.1368,0,U,69199,999,524,-.30911E-1,-.2538402E-1,0
STARLINK-37761,2026-114U,2026-06-19T20:00:01.999008,15.63484346,.0001405,53.1602,189.0346,93.2839,134.0461,0,U,69200,999,524,-.30612E-1,-.2512385E-1,0
STARLINK-37754,2026-114V,2026-06-19T20:00:01.999008,15.67415813,.000093,53.1603,188.9475,82.6996,187.2400,0,U,69201,999,524,-.26959E-1,-.2582675E-1,0
STARLINK-37649,2026-114W,2026-06-19T12:31:25.291200,15.80921915,.00012359,53.1567,190.3765,107.7453,252.3705,0,U,69202,999,514,.67490127E-3,.134909E-2,0
STARLINK-37604,2026-114X,2026-06-19T12:30:20.948256,15.80954621,.00009691,53.1565,190.3717,66.3182,293.7942,0,U,69203,999,514,.84993611E-3,.171057E-2,0
STARLINK-37669,2026-114Y,2026-06-19T20:00:01.999008,15.66764252,.0001004,53.1599,188.9309,92.8131,185.0892,0,U,69204,999,524,-.27379E-1,-.255761E-1,0
STARLINK-37691,2026-114Z,2026-06-19T12:56:10.838976,15.78151231,.0000784,53.1575,190.4918,80.1477,279.9633,0,U,69205,999,514,.11906267E-2,.212187E-2,0
STARLINK-37671,2026-114AA,2026-06-19T12:45:39.275712,15.78146608,.00009017,53.1578,190.4445,95.3413,264.7711,0,U,69206,999,514,.12400961E-2,.221221E-2,0
STARLINK-37647,2026-114AB,2026-06-19T12:28:11.331840,15.80954512,.00008882,53.1563,190.3615,77.2742,282.8380,0,U,69207,999,514,.88025282E-3,.177313E-2,0
STARLINK-37562,2026-114AC,2026-06-19T12:48:36.973728,15.78194183,.00009087,53.1581,190.4571,115.9955,244.1160,0,U,69208,999,514,.14242551E-2,.25576E-2,0
STARLINK-37682,2026-114AD,2026-06-19T12:23:52.038528,15.80948259,.00010739,53.1562,190.3405,101.6084,258.5059,0,U,69209,999,514,.8074488E-3,.162256E-2,0
